{"type": "FeatureCollection", "features": [ {"type": "Feature", "properties": {"norad_id": 43108, "name": "BEIDOU-3 M8 (C28)", "group": "gnss", "lat": -33.13936666556648, "lon": 156.77992567578255, "alt_km": 21523.987335844635, "timestamp": "2025-12-05T18:53:13.525805+00:00", "meta": {"OBJECT_NAME": "BEIDOU-3 M8 (C28)", "OBJECT_ID": "2018-003B", "EPOCH": "2025-12-03T20:16:15.436704", "MEAN_MOTION": 1.86230755, "ECCENTRICITY": 0.0004789, "INCLINATION": 54.4975, "RA_OF_ASC_NODE": 309.1071, "ARG_OF_PERICENTER": 274.2636, "MEAN_ANOMALY": 85.6663, "EPHEMERIS_TYPE": 0, "CLASSIFICATION_TYPE": "U", "NORAD_CAT_ID": 43108, "ELEMENT_SET_NO": 999, "REV_AT_EPOCH": 5372, "BSTAR": 0, "MEAN_MOTION_DOT": -6.8e-07, "MEAN_MOTION_DDOT": 0}, "tle": {"line1": "1 43108U 18003B   25337.84462311 -.00000068  00000+0  00000+0 0  9990", "line2": "2 43108  54.4975 309.1071 0004789 274.2636  85.6663  1.86230755 53729"}}, "geometry": {"type": "Point", "coordinates": [156.77992567578255, -33.13936666556648]}}, {"type": "Feature", "properties": {"norad_id": 43207, "name": "BEIDOU-3 M4 (C22)", "group": "gnss", "lat": -53.31014027248095, "lon": 6.900065159977143, "alt_km": 21533.73396210186, "timestamp": "2025-12-05T18:53:13.525823+00:00", "meta": {"OBJECT_NAME": "BEIDOU-3 M4 (C22)", "OBJECT_ID": "2018-018A", "EPOCH": "2025-12-02T03:19:43.852800", "MEAN_MOTION": 1.86230706, "ECCENTRICITY": 0.00040749, "INCLINATION": 56.4768, "RA_OF_ASC_NODE": 69.6557, "ARG_OF_PERICENTER": 15.1369, "MEAN_ANOMALY": 344.8773, "EPHEMERIS_TYPE": 0, "CLASSIFICATION_TYPE": "U", "NORAD_CAT_ID": 43207, "ELEMENT_SET_NO": 999, "REV_AT_EPOCH": 5307, "BSTAR": 0, "MEAN_MOTION_DOT": -4.5e-07, "MEAN_MOTION_DDOT": 0}, "tle": {"line1": "1 43207U 18018A   25336.13870200 -.00000045  00000+0  00000+0 0  9992", "line2": "2 43207  56.4768  69.6557 0004074  15.1369 344.8773  1.86230706 53076"}}, "geometry": {"type": "Point", "coordinates": [6.900065159977143, -53.31014027248095]}}, {"type": "Feature", "properties": {"norad_id": 43208, "name": "BEIDOU-3 M3 (C21)", "group": "gnss", "lat": -46.99412199491087, "lon": -65.25857176520404, "alt_km": 21529.314135640645, "timestamp": "2025-12-05T18:53:13.525840+00:00", "meta": {"OBJECT_NAME": "BEIDOU-3 M3 (C21)", "OBJECT_ID": "2018-018B", "EPOCH": "2025-12-03T06:41:57.693408", "MEAN_MOTION": 1.86230862, "ECCENTRICITY": 0.0006282, "INCLINATION": 56.4772, "RA_OF_ASC_NODE": 69.6218, "ARG_OF_PERICENTER": 317.5873, "MEAN_ANOMALY": 42.3668, "EPHEMERIS_TYPE": 0, "CLASSIFICATION_TYPE": "U", "NORAD_CAT_ID": 43208, "ELEMENT_SET_NO": 999, "REV_AT_EPOCH": 5309, "BSTAR": 0, "MEAN_MOTION_DOT": -4.9e-07, "MEAN_MOTION_DDOT": 0}, "tle": {"line1": "1 43208U 18018B   25337.27913997 -.00000049  00000+0  00000+0 0  9994", "line2": "2 43208  56.4772  69.6218 0006282 317.5873  42.3668  1.86230862 53096"}}, "geometry": {"type": "Point", "coordinates": [-65.25857176520404, -46.99412199491087]}}, {"type": "Feature", "properties": {"norad_id": 43245, "name": "BEIDOU-3 M9 (C29)", "group": "gnss", "lat": 53.863591990821526, "lon": 47.71803956370699, "alt_km": 21526.807785914098, "timestamp": "2025-12-05T18:53:13.525860+00:00", "meta": {"OBJECT_NAME": "BEIDOU-3 M9 (C29)", "OBJECT_ID": "2018-029A", "EPOCH": "2025-12-05T02:32:47.739840", "MEAN_MOTION": 1.86227814, "ECCENTRICITY": 0.0001693, "INCLINATION": 54.3728, "RA_OF_ASC_NODE": 306.734, "ARG_OF_PERICENTER": 274.7649, "MEAN_ANOMALY": 85.198, "EPHEMERIS_TYPE": 0, "CLASSIFICATION_TYPE": "U", "NORAD_CAT_ID": 43245, "ELEMENT_SET_NO": 999, "REV_AT_EPOCH": 5228, "BSTAR": 0, "MEAN_MOTION_DOT": -6.9e-07, "MEAN_MOTION_DDOT": 0}, "tle": {"line1": "1 43245U 18029A   25339.10610810 -.00000069  00000+0  00000+0 0  9991", "line2": "2 43245  54.3728 306.7340 0001693 274.7649  85.1980  1.86227814 52287"}}, "geometry": {"type": "Point", "coordinates": [47.71803956370699, 53.863591990821526]}}, {"type": "Feature", "properties": {"norad_id": 43246, "name": "BEIDOU-3 M10 (C30)", "group": "gnss", "lat": 31.548058752381746, "lon": 100.60652021097114, "alt_km": 21532.936899435597, "timestamp": "2025-12-05T18:53:13.525877+00:00", "meta": {"OBJECT_NAME": "BEIDOU-3 M10 (C30)", "OBJECT_ID": "2018-029B", "EPOCH": "2025-12-02T08:33:31.656096", "MEAN_MOTION": 1.86228863, "ECCENTRICITY": 0.00039643, "INCLINATION": 54.3728, "RA_OF_ASC_NODE": 306.8573, "ARG_OF_PERICENTER": 359.3208, "MEAN_ANOMALY": 0.6665, "EPHEMERIS_TYPE": 0, "CLASSIFICATION_TYPE": "U", "NORAD_CAT_ID": 43246, "ELEMENT_SET_NO": 999, "REV_AT_EPOCH": 5221, "BSTAR": 0, "MEAN_MOTION_DOT": -6.2e-07, "MEAN_MOTION_DDOT": 0}, "tle": {"line1": "1 43246U 18029B   25336.35661639 -.00000062  00000+0  00000+0 0  9994", "line2": "2 43246  54.3728 306.8573 0003964 359.3208   0.6665  1.86228863 52211"}}, "geometry": {"type": "Point", "coordinates": [100.60652021097114, 31.548058752381746]}}, {"type": "Feature", "properties": {"norad_id": 43286, "name": "IRNSS-1I", "group": "gnss", "lat": -11.340823444360476, "lon": 56.093797668983925, "alt_km": 35872.96077193197, "timestamp": "2025-12-05T18:53:13.525896+00:00", "meta": {"OBJECT_NAME": "IRNSS-1I", "OBJECT_ID": "2018-035A", "EPOCH": "2025-12-04T20:50:09.481056", "MEAN_MOTION": 1.00267909, "ECCENTRICITY": 0.0022049, "INCLINATION": 29.131, "RA_OF_ASC_NODE": 77.2208, "ARG_OF_PERICENTER": 181.8312, "MEAN_ANOMALY": 182.5191, "EPHEMERIS_TYPE": 0, "CLASSIFICATION_TYPE": "U", "NORAD_CAT_ID": 43286, "ELEMENT_SET_NO": 999, "REV_AT_EPOCH": 2813, "BSTAR": 0, "MEAN_MOTION_DOT": 7.6e-07, "MEAN_MOTION_DDOT": 0}, "tle": {"line1": "1 43286U 18035A   25338.86816529  .00000076  00000+0  00000+0 0  9997", "line2": "2 43286  29.1310  77.2208 0022049 181.8312 182.5191  1.00267909 28133"}}, "geometry": {"type": "Point", "coordinates": [56.093797668983925, -11.340823444360476]}}, {"type": "Feature", "properties": {"norad_id": 43508, "name": "COSMOS 2527 (756)", "group": "gnss", "lat": 26.22822101924302, "lon": 93.34825874685818, "alt_km": 19148.36587518392, "timestamp": "2025-12-05T18:53:13.525913+00:00", "meta": {"OBJECT_NAME": "COSMOS 2527 (756)", "OBJECT_ID": "2018-053A", "EPOCH": "2025-12-04T19:27:07.624224", "MEAN_MOTION": 2.1310203, "ECCENTRICITY": 0.00086941, "INCLINATION": 65.4682, "RA_OF_ASC_NODE": 80.3968, "ARG_OF_PERICENTER": 224.6174, "MEAN_ANOMALY": 135.3122, "EPHEMERIS_TYPE": 0, "CLASSIFICATION_TYPE": "U", "NORAD_CAT_ID": 43508, "ELEMENT_SET_NO": 999, "REV_AT_EPOCH": 5813, "BSTAR": 0, "MEAN_MOTION_DOT": -2.1e-07, "MEAN_MOTION_DDOT": 0}, "tle": {"line1": "1 43508U 18053A   25338.81050491 -.00000021  00000+0  00000+0 0  9998", "line2": "2 43508  65.4682  80.3968 0008694 224.6174 135.3122  2.13102030 58136"}}, "geometry": {"type": "Point", "coordinates": [93.34825874685818, 26.22822101924302]}}, {"type": "Feature", "properties": {"norad_id": 43539, "name": "BEIDOU-2 IGSO-7 (C16)", "group": "gnss", "lat": -41.78107472755313, "lon": 126.1798407220514, "alt_km": 35661.27997686014, "timestamp": "2025-12-05T18:53:13.525930+00:00", "meta": {"OBJECT_NAME": "BEIDOU-2 IGSO-7 (C16)", "OBJECT_ID": "2018-057A", "EPOCH": "2025-12-04T10:49:25.352832", "MEAN_MOTION": 1.00259277, "ECCENTRICITY": 0.0092474, "INCLINATION": 55.1728, "RA_OF_ASC_NODE": 164.7444, "ARG_OF_PERICENTER": 235.1674, "MEAN_ANOMALY": 307.3303, "EPHEMERIS_TYPE": 0, "CLASSIFICATION_TYPE": "U", "NORAD_CAT_ID": 43539, "ELEMENT_SET_NO": 999, "REV_AT_EPOCH": 2717, "BSTAR": 0, "MEAN_MOTION_DOT": -3.5e-07, "MEAN_MOTION_DDOT": 0}, "tle": {"line1": "1 43539U 18057A   25338.45098788 -.00000035  00000+0  00000+0 0  9992", "line2": "2 43539  55.1728 164.7444 0092474 235.1674 307.3303  1.00259277 27177"}}, "geometry": {"type": "Point", "coordinates": [126.1798407220514, -41.78107472755313]}}, {"type": "Feature", "properties": {"norad_id": 43564, "name": "GSAT0221 (GALILEO 25)", "group": "gnss", "lat": -0.9015074926642996, "lon": 167.58860581059716, "alt_km": 23225.70748631689, "timestamp": "2025-12-05T18:53:13.525947+00:00", "meta": {"OBJECT_NAME": "GSAT0221 (GALILEO 25)", "OBJECT_ID": "2018-060A", "EPOCH": "2025-12-04T07:38:46.646016", "MEAN_MOTION": 1.70475653, "ECCENTRICITY": 0.00066579, "INCLINATION": 57.2296, "RA_OF_ASC_NODE": 347.0453, "ARG_OF_PERICENTER": 280.7305, "MEAN_ANOMALY": 79.2265, "EPHEMERIS_TYPE": 0, "CLASSIFICATION_TYPE": "U", "NORAD_CAT_ID": 43564, "ELEMENT_SET_NO": 999, "REV_AT_EPOCH": 4584, "BSTAR": 0, "MEAN_MOTION_DOT": -7.1e-07, "MEAN_MOTION_DDOT": 0}, "tle": {"line1": "1 43564U 18060A   25338.31859544 -.00000071  00000+0  00000+0 0  9994", "line2": "2 43564  57.2296 347.0453 0006657 280.7305  79.2265  1.70475653 45840"}}, "geometry": {"type": "Point", "coordinates": [167.58860581059716, -0.9015074926642996]}}, {"type": "Feature", "properties": {"norad_id": 43565, "name": "GSAT0222 (GALILEO 26)", "group": "gnss", "lat": 37.60856918721429, "lon": 16.763811587681708, "alt_km": 23232.645610243973, "timestamp": "2025-12-05T18:53:13.525965+00:00", "meta": {"OBJECT_NAME": "GSAT0222 (GALILEO 26)", "OBJECT_ID": "2018-060B", "EPOCH": "2025-12-03T08:45:14.770656", "MEAN_MOTION": 1.70475396, "ECCENTRICITY": 0.00061792, "INCLINATION": 57.2336, "RA_OF_ASC_NODE": 347.0741, "ARG_OF_PERICENTER": 260.8098, "MEAN_ANOMALY": 99.1565, "EPHEMERIS_TYPE": 0, "CLASSIFICATION_TYPE": "U", "NORAD_CAT_ID": 43565, "ELEMENT_SET_NO": 999, "REV_AT_EPOCH": 4587, "BSTAR": 0, "MEAN_MOTION_DOT": -6.7e-07, "MEAN_MOTION_DDOT": 0}, "tle": {"line1": "1 43565U 18060B   25337.36475429 -.00000067  00000+0  00000+0 0  9990", "line2": "2 43565  57.2336 347.0741 0006179 260.8098  99.1565  1.70475396 45874"}}, "geometry": {"type": "Point", "coordinates": [16.763811587681708, 37.60856918721429]}}]}